[
  {
    "name": "ONEWEB-0399",
    "noradId": "50479",
    "line1": "1 50479U 21132L   26192.53622896 -.00000478  00000+0 -13856-2 0  9990",
    "line2": "2 50479  87.8889  16.2217 0001624  74.0022 286.1285 13.11416185218792"
  },
  {
    "name": "ONEWEB-0400",
    "noradId": "50480",
    "line1": "1 50480U 21132M   26192.82035360 -.00000227  00000+0 -60786-3 0  9995",
    "line2": "2 50480  87.9195 330.5463 0002091  96.8567 263.2803 13.18684553224854"
  },
  {
    "name": "ONEWEB-0401",
    "noradId": "50481",
    "line1": "1 50481U 21132N   26192.86589436  .00000036  00000+0  57536-4 0  9994",
    "line2": "2 50481  87.9194 330.5348 0001738 102.4059 257.7268 13.18686439224862"
  },
  {
    "name": "ONEWEB-0402",
    "noradId": "50482",
    "line1": "1 50482U 21132P   26192.82879024  .00000008  00000+0 -12155-4 0  9994",
    "line2": "2 50482  87.9191 330.5311 0001496 106.7299 253.3997 13.18687201224885"
  },
  {
    "name": "ONEWEB-0403",
    "noradId": "50483",
    "line1": "1 50483U 21132Q   26192.85409064  .00000034  00000+0  52331-4 0  9999",
    "line2": "2 50483  87.9192 330.5504 0001790  92.5515 267.5822 13.18686702224846"
  },
  {
    "name": "ONEWEB-0404",
    "noradId": "50484",
    "line1": "1 50484U 21132R   26192.51757985  .00000126  00000+0  31880-3 0  9998",
    "line2": "2 50484  87.8884  16.2225 0001896  80.3168 279.8174 13.11414210218887"
  },
  {
    "name": "ONEWEB-0405",
    "noradId": "50485",
    "line1": "1 50485U 21132S   26192.86757222  .00000015  00000+0  43789-5 0  9991",
    "line2": "2 50485  87.9197 330.5327 0002369  97.2358 262.9044 13.18684568225244"
  },
  {
    "name": "ONEWEB-0406",
    "noradId": "50486",
    "line1": "1 50486U 21132T   26192.85914405  .00000108  00000+0  24228-3 0  9997",
    "line2": "2 50486  87.9190 330.5494 0001878  80.6505 279.4839 13.18687335224875"
  },
  {
    "name": "ONEWEB-0407",
    "noradId": "50487",
    "line1": "1 50487U 21132U   26192.85239081  .00000013  00000+0 -65689-6 0  9993",
    "line2": "2 50487  87.9196 330.5440 0001945 103.3398 256.7951 13.18688210224811"
  },
  {
    "name": "ONEWEB-0409",
    "noradId": "50488",
    "line1": "1 50488U 21132V   26192.51589023  .00000140  00000+0  35998-3 0  9998",
    "line2": "2 50488  87.8868  16.2115 0001933  83.9443 276.1905 13.11414239218779"
  },
  {
    "name": "ONEWEB-0412",
    "noradId": "50489",
    "line1": "1 50489U 21132W   26192.84059770 -.00000026  00000+0 -98941-4 0  9999",
    "line2": "2 50489  87.9188 330.5541 0001617 103.6691 256.4621 13.18686583224903"
  },
  {
    "name": "ONEWEB-0413",
    "noradId": "50490",
    "line1": "1 50490U 21132X   26192.84565559 -.00000047  00000+0 -15101-3 0  9997",
    "line2": "2 50490  87.9184 330.5495 0001745 108.5875 251.5447 13.18688049224843"
  },
  {
    "name": "ONEWEB-0414",
    "noradId": "50491",
    "line1": "1 50491U 21132Y   26192.83048105 -.00000042  00000+0 -13877-3 0  9993",
    "line2": "2 50491  87.9193 330.5371 0001731  97.1295 263.0034 13.18686338224873"
  },
  {
    "name": "ONEWEB-0417",
    "noradId": "50492",
    "line1": "1 50492U 21132Z   26192.83890844 -.00000025  00000+0 -95286-4 0  9995",
    "line2": "2 50492  87.9188 330.5528 0001888  91.6360 268.4988 13.18686747224856"
  },
  {
    "name": "ONEWEB-0418",
    "noradId": "50493",
    "line1": "1 50493U 21132AA  26192.84888697 -.00000022  00000+0 -89254-4 0  9995",
    "line2": "2 50493  87.9186 330.5523 0001908  89.2680 270.8670 13.18686162224914"
  },
  {
    "name": "ONEWEB-0419",
    "noradId": "50494",
    "line1": "1 50494U 21132AB  26192.86786259  .00000016  00000+0  89624-5 0  9992",
    "line2": "2 50494  87.9192 330.5488 0002093  93.1803 266.9569 13.18666231224838"
  },
  {
    "name": "ONEWEB-0420",
    "noradId": "50495",
    "line1": "1 50495U 21132AC  26192.75627637 -.00000038  00000+0 -12818-3 0  9990",
    "line2": "2 50495  87.9184 330.5716 0001967 103.3986 256.7366 13.18686918224813"
  },
  {
    "name": "ONEWEB-0421",
    "noradId": "50496",
    "line1": "1 50496U 21132AD  26192.82543155  .00000099  00000+0  21954-3 0  9997",
    "line2": "2 50496  87.9182 330.5558 0001375  99.0960 261.0328 13.18686060224862"
  },
  {
    "name": "ONEWEB-0424",
    "noradId": "50497",
    "line1": "1 50497U 21132AE  26192.86252104  .00000020  00000+0  18608-4 0  9990",
    "line2": "2 50497  87.9192 330.5480 0002179  94.1346 266.0035 13.18686848224892"
  },
  {
    "name": "ONEWEB-0426",
    "noradId": "50498",
    "line1": "1 50498U 21132AF  26192.82121057  .00000012  00000+0 -13176-5 0  9997",
    "line2": "2 50498  87.9193 330.5475 0001470  77.7416 282.3880 13.18685622224838"
  },
  {
    "name": "ONEWEB-0427",
    "noradId": "50499",
    "line1": "1 50499U 21132AG  26192.86083617  .00000045  00000+0  80228-4 0  9997",
    "line2": "2 50499  87.9196 330.5284 0001885  90.7000 269.4349 13.18686732224866"
  },
  {
    "name": "ONEWEB-0429",
    "noradId": "50500",
    "line1": "1 50500U 21132AH  26192.84733465 -.00000021  00000+0 -87061-4 0  9999",
    "line2": "2 50500  87.9187 330.5538 0001902 100.7341 259.4005 13.18687030224838"
  },
  {
    "name": "ONEWEB-0430",
    "noradId": "50501",
    "line1": "1 50501U 21132AJ  26192.83553257 -.00000033  00000+0 -11536-3 0  9994",
    "line2": "2 50501  87.9195 330.5549 0002203 103.8871 256.2506 13.18687979224874"
  },
  {
    "name": "ONEWEB-0432",
    "noradId": "50502",
    "line1": "1 50502U 21132AK  26192.81854631 -.00000012  00000+0 -62221-4 0  9998",
    "line2": "2 50502  87.9193 330.5443 0002366  99.1827 260.9573 13.18685698224821"
  },
  {
    "name": "ONEWEB-0440",
    "noradId": "50503",
    "line1": "1 50503U 21132AL  26192.85576935  .00000007  00000+0 -13845-4 0  9992",
    "line2": "2 50503  87.9196 330.5487 0001608 105.2677 254.8633 13.18687025224828"
  },
  {
    "name": "ONEWEB-0450",
    "noradId": "50504",
    "line1": "1 50504U 21132AM  26192.84916580 -.00000012  00000+0 -62712-4 0  9990",
    "line2": "2 50504  87.9185 330.5524 0001979 102.5179 257.6174 13.18686760224856"
  },
  {
    "name": "ONEWEB-0410",
    "noradId": "51622",
    "line1": "1 51622U 22012A   26192.51684895  .00000021  00000+0  20791-4 0  9994",
    "line2": "2 51622  87.9152   1.0192 0001989  52.8851 307.2462 13.17649907216908"
  },
  {
    "name": "ONEWEB-0411",
    "noradId": "51623",
    "line1": "1 51623U 22012B   26192.60046483 -.00000049  00000+0 -17599-3 0  9993",
    "line2": "2 51623  87.8827  31.4026 0002195  97.6730 262.4647 13.10377731212485"
  },
  {
    "name": "ONEWEB-0415",
    "noradId": "51624",
    "line1": "1 51624U 22012C   26192.59706090 -.00000074  00000+0 -24688-3 0  9994",
    "line2": "2 51624  87.8824  31.4021 0002152  87.2395 272.8979 13.10378278212483"
  },
  {
    "name": "ONEWEB-0416",
    "noradId": "51625",
    "line1": "1 51625U 22012D   26192.60895628  .00000467  00000+0  13018-2 0  9991",
    "line2": "2 51625  87.8816  31.4161 0002219  84.8571 275.2810 13.10376701212528"
  }
]